ALOS (DAICHI)           
1 28931U 06002A   26017.30593516  .00001099  00000+0  19320-3 0  9995
2 28931  98.1138 333.5547 0002164  88.0953 272.0501 14.69609357 65931
H-2A R/B                
1 28932U 06002B   26017.32000194  .00007992  00000+0  41259-3 0  9997
2 28932  98.2337 160.0011 0054386  56.8242 303.8187 15.15322965 86654
RESURS-DK 1             
1 29228U 06021A   26017.28377887  .00002183  00000+0  13162-3 0  9997
2 29228  69.9322   9.9628 0005575 226.5767 133.4935 15.12385051 79754
CZ-4B R/B               
1 29507U 06046C   26017.21214119  .00004366  00000+0  22562-3 0  9994
2 29507  97.5689  62.2554 0035290  86.1959 274.3308 15.16270498 52243
CZ-2C R/B               
1 31114U 07010B   26017.29701075  .00000082  00000+0  56162-4 0  9998
2 31114  98.3972 133.1587 0060097  83.8649 276.9372 14.20225245972425
COSMO-SKYMED 1          
1 31598U 07023A   26017.30672455  .00002743  00000+0  24948-3 0  9991
2 31598  97.8837 207.9477 0001017  76.0152 284.1182 14.96062693  7229
COSMOS 2428             
1 31792U 07029A   26017.20785241  .00000361  00000+0  21978-3 0  9994
2 31792  70.9400 311.4134 0005807 336.2239  23.8613 14.12911938956821
SL-16 R/B               
1 31793U 07029B   26017.18397628 -.00000273  00000+0 -11647-3 0  9996
2 31793  70.9756 280.6532 0002172 273.8216 248.3034 14.14823110958085
KORONAS-FOTON           
1 33504U 09003A   26017.26070235  .00009444  00000+0  22075-3 0  9997
2 33504  82.4322 329.2781 0010846 354.7876   5.3256 15.41941021937816
CZ-2C R/B               
1 37731U 11030B   26017.12343853  .00000938  00000+0  12496-3 0  9995
2 37731  97.8459 335.4589 0053241 156.6442 214.1014 14.81015931782468
H-2A R/B                
1 38341U 12025E   26017.12311052  .00002278  00000+0  21192-3 0  9996
2 38341  98.4644 340.0970 0046130 120.2146 240.3652 14.94691216740511
SHIJIAN-16 (SJ-16)      
1 39358U 13057A   26017.27380046  .00000739  00000+0  75320-4 0  9999
2 39358  74.9738 282.4134 0017722 237.7035 122.2437 14.92142619663834
