CCSDS_OMM_VERS = 2.0
CREATION_DATE  = 
ORIGINATOR     = 

OBJECT_NAME    = ALOS (DAICHI)
OBJECT_ID      = 2006-002A
CENTER_NAME    = EARTH
REF_FRAME      = TEME
TIME_SYSTEM    = UTC
MEAN_ELEMENT_THEORY = SGP/SGP4

EPOCH          = 2026-01-17T07:20:32.797824
MEAN_MOTION    = 14.69609357
ECCENTRICITY   = .00021646
INCLINATION    = 98.1138
RA_OF_ASC_NODE = 333.5547
ARG_OF_PERICENTER = 88.0953
MEAN_ANOMALY   = 272.0501

EPHEMERIS_TYPE = 0
CLASSIFICATION_TYPE = U
NORAD_CAT_ID   = 28931
ELEMENT_SET_NO = 999
REV_AT_EPOCH   = 6593
BSTAR          = .19320422E-3
MEAN_MOTION_DOT = .1099E-4
MEAN_MOTION_DDOT = 0

CCSDS_OMM_VERS = 2.0
CREATION_DATE  = 
ORIGINATOR     = 

OBJECT_NAME    = H-2A R/B
OBJECT_ID      = 2006-002B
CENTER_NAME    = EARTH
REF_FRAME      = TEME
TIME_SYSTEM    = UTC
MEAN_ELEMENT_THEORY = SGP/SGP4

EPOCH          = 2026-01-17T07:40:48.167616
MEAN_MOTION    = 15.15322965
ECCENTRICITY   = .00543869
INCLINATION    = 98.2337
RA_OF_ASC_NODE = 160.0011
ARG_OF_PERICENTER = 56.8242
MEAN_ANOMALY   = 303.8187

EPHEMERIS_TYPE = 0
CLASSIFICATION_TYPE = U
NORAD_CAT_ID   = 28932
ELEMENT_SET_NO = 999
REV_AT_EPOCH   = 8665
BSTAR          = .41259298E-3
MEAN_MOTION_DOT = .7992E-4
MEAN_MOTION_DDOT = 0

CCSDS_OMM_VERS = 2.0
CREATION_DATE  = 
ORIGINATOR     = 

OBJECT_NAME    = RESURS-DK 1
OBJECT_ID      = 2006-021A
CENTER_NAME    = EARTH
REF_FRAME      = TEME
TIME_SYSTEM    = UTC
MEAN_ELEMENT_THEORY = SGP/SGP4

EPOCH          = 2026-01-17T06:48:38.494368
MEAN_MOTION    = 15.12385051
ECCENTRICITY   = .00055756
INCLINATION    = 69.9322
RA_OF_ASC_NODE = 9.9628
ARG_OF_PERICENTER = 226.5767
MEAN_ANOMALY   = 133.4935

EPHEMERIS_TYPE = 0
CLASSIFICATION_TYPE = U
NORAD_CAT_ID   = 29228
ELEMENT_SET_NO = 999
REV_AT_EPOCH   = 7975
BSTAR          = .13162272E-3
MEAN_MOTION_DOT = .2183E-4
MEAN_MOTION_DDOT = 0

CCSDS_OMM_VERS = 2.0
CREATION_DATE  = 
ORIGINATOR     = 

OBJECT_NAME    = CZ-4B R/B
OBJECT_ID      = 2006-046C
CENTER_NAME    = EARTH
REF_FRAME      = TEME
TIME_SYSTEM    = UTC
MEAN_ELEMENT_THEORY = SGP/SGP4

EPOCH          = 2026-01-17T05:05:28.998816
MEAN_MOTION    = 15.16270498
ECCENTRICITY   = .00352908
INCLINATION    = 97.5689
RA_OF_ASC_NODE = 62.2554
ARG_OF_PERICENTER = 86.1959
MEAN_ANOMALY   = 274.3308

EPHEMERIS_TYPE = 0
CLASSIFICATION_TYPE = U
NORAD_CAT_ID   = 29507
ELEMENT_SET_NO = 999
REV_AT_EPOCH   = 5224
BSTAR          = .22562247E-3
MEAN_MOTION_DOT = .4366E-4
MEAN_MOTION_DDOT = 0

CCSDS_OMM_VERS = 2.0
CREATION_DATE  = 
ORIGINATOR     = 

OBJECT_NAME    = CZ-2C R/B
OBJECT_ID      = 2007-010B
CENTER_NAME    = EARTH
REF_FRAME      = TEME
TIME_SYSTEM    = UTC
MEAN_ELEMENT_THEORY = SGP/SGP4

EPOCH          = 2026-01-17T07:07:41.728800
MEAN_MOTION    = 14.20225245
ECCENTRICITY   = .00600977
INCLINATION    = 98.3972
RA_OF_ASC_NODE = 133.1587
ARG_OF_PERICENTER = 83.8649
MEAN_ANOMALY   = 276.9372

EPHEMERIS_TYPE = 0
CLASSIFICATION_TYPE = U
NORAD_CAT_ID   = 31114
ELEMENT_SET_NO = 999
REV_AT_EPOCH   = 97242
BSTAR          = .56161962E-4
MEAN_MOTION_DOT = .82E-6
MEAN_MOTION_DDOT = 0

CCSDS_OMM_VERS = 2.0
CREATION_DATE  = 
ORIGINATOR     = 

OBJECT_NAME    = COSMO-SKYMED 1
OBJECT_ID      = 2007-023A
CENTER_NAME    = EARTH
REF_FRAME      = TEME
TIME_SYSTEM    = UTC
MEAN_ELEMENT_THEORY = SGP/SGP4

EPOCH          = 2026-01-17T07:21:41.001120
MEAN_MOTION    = 14.96062693
ECCENTRICITY   = .00010173
INCLINATION    = 97.8837
RA_OF_ASC_NODE = 207.9477
ARG_OF_PERICENTER = 76.0152
MEAN_ANOMALY   = 284.1182

EPHEMERIS_TYPE = 0
CLASSIFICATION_TYPE = U
NORAD_CAT_ID   = 31598
ELEMENT_SET_NO = 999
REV_AT_EPOCH   = 722
BSTAR          = .24947889E-3
MEAN_MOTION_DOT = .2743E-4
MEAN_MOTION_DDOT = 0

CCSDS_OMM_VERS = 2.0
CREATION_DATE  = 
ORIGINATOR     = 

OBJECT_NAME    = COSMOS 2428
OBJECT_ID      = 2007-029A
CENTER_NAME    = EARTH
REF_FRAME      = TEME
TIME_SYSTEM    = UTC
MEAN_ELEMENT_THEORY = SGP/SGP4

EPOCH          = 2026-01-17T04:59:18.448224
MEAN_MOTION    = 14.12911938
ECCENTRICITY   = .0005807
INCLINATION    = 70.9400
RA_OF_ASC_NODE = 311.4134
ARG_OF_PERICENTER = 336.2239
MEAN_ANOMALY   = 23.8613

EPHEMERIS_TYPE = 0
CLASSIFICATION_TYPE = U
NORAD_CAT_ID   = 31792
ELEMENT_SET_NO = 999
REV_AT_EPOCH   = 95682
BSTAR          = .21978487E-3
MEAN_MOTION_DOT = .361E-5
MEAN_MOTION_DDOT = 0

CCSDS_OMM_VERS = 2.0
CREATION_DATE  = 
ORIGINATOR     = 

OBJECT_NAME    = SL-16 R/B
OBJECT_ID      = 2007-029B
CENTER_NAME    = EARTH
REF_FRAME      = TEME
TIME_SYSTEM    = UTC
MEAN_ELEMENT_THEORY = SGP/SGP4

EPOCH          = 2026-01-17T04:24:55.550592
MEAN_MOTION    = 14.14823110
ECCENTRICITY   = .00021724
INCLINATION    = 70.9756
RA_OF_ASC_NODE = 280.6532
ARG_OF_PERICENTER = 273.8216
MEAN_ANOMALY   = 248.3034

EPHEMERIS_TYPE = 0
CLASSIFICATION_TYPE = U
NORAD_CAT_ID   = 31793
ELEMENT_SET_NO = 999
REV_AT_EPOCH   = 95808
BSTAR          = -.1164701E-3
MEAN_MOTION_DOT = -.273E-5
MEAN_MOTION_DDOT = 0

CCSDS_OMM_VERS = 2.0
CREATION_DATE  = 
ORIGINATOR     = 

OBJECT_NAME    = KORONAS-FOTON
OBJECT_ID      = 2009-003A
CENTER_NAME    = EARTH
REF_FRAME      = TEME
TIME_SYSTEM    = UTC
MEAN_ELEMENT_THEORY = SGP/SGP4

EPOCH          = 2026-01-17T06:15:24.683040
MEAN_MOTION    = 15.41941021
ECCENTRICITY   = .00108465
INCLINATION    = 82.4322
RA_OF_ASC_NODE = 329.2781
ARG_OF_PERICENTER = 354.7876
MEAN_ANOMALY   = 5.3256

EPHEMERIS_TYPE = 0
CLASSIFICATION_TYPE = U
NORAD_CAT_ID   = 33504
ELEMENT_SET_NO = 999
REV_AT_EPOCH   = 93781
BSTAR          = .22074622E-3
MEAN_MOTION_DOT = .9444E-4
MEAN_MOTION_DDOT = 0

CCSDS_OMM_VERS = 2.0
CREATION_DATE  = 
ORIGINATOR     = 

OBJECT_NAME    = CZ-2C R/B
OBJECT_ID      = 2011-030B
CENTER_NAME    = EARTH
REF_FRAME      = TEME
TIME_SYSTEM    = UTC
MEAN_ELEMENT_THEORY = SGP/SGP4

EPOCH          = 2026-01-17T02:57:45.088992
MEAN_MOTION    = 14.81015931
ECCENTRICITY   = .00532415
INCLINATION    = 97.8459
RA_OF_ASC_NODE = 335.4589
ARG_OF_PERICENTER = 156.6442
MEAN_ANOMALY   = 214.1014

EPHEMERIS_TYPE = 0
CLASSIFICATION_TYPE = U
NORAD_CAT_ID   = 37731
ELEMENT_SET_NO = 999
REV_AT_EPOCH   = 78246
BSTAR          = .12496172E-3
MEAN_MOTION_DOT = .938E-5
MEAN_MOTION_DDOT = 0

CCSDS_OMM_VERS = 2.0
CREATION_DATE  = 
ORIGINATOR     = 

OBJECT_NAME    = H-2A R/B
OBJECT_ID      = 2012-025E
CENTER_NAME    = EARTH
REF_FRAME      = TEME
TIME_SYSTEM    = UTC
MEAN_ELEMENT_THEORY = SGP/SGP4

EPOCH          = 2026-01-17T02:57:16.748928
MEAN_MOTION    = 14.94691216
ECCENTRICITY   = .00461307
INCLINATION    = 98.4644
RA_OF_ASC_NODE = 340.0970
ARG_OF_PERICENTER = 120.2146
MEAN_ANOMALY   = 240.3652

EPHEMERIS_TYPE = 0
CLASSIFICATION_TYPE = U
NORAD_CAT_ID   = 38341
ELEMENT_SET_NO = 999
REV_AT_EPOCH   = 74051
BSTAR          = .21192021E-3
MEAN_MOTION_DOT = .2278E-4
MEAN_MOTION_DDOT = 0

CCSDS_OMM_VERS = 2.0
CREATION_DATE  = 
ORIGINATOR     = 

OBJECT_NAME    = SHIJIAN-16 (SJ-16)
OBJECT_ID      = 2013-057A
CENTER_NAME    = EARTH
REF_FRAME      = TEME
TIME_SYSTEM    = UTC
MEAN_ELEMENT_THEORY = SGP/SGP4

EPOCH          = 2026-01-17T06:34:16.359744
MEAN_MOTION    = 14.92142619
ECCENTRICITY   = .0017722
INCLINATION    = 74.9738
RA_OF_ASC_NODE = 282.4134
ARG_OF_PERICENTER = 237.7035
MEAN_ANOMALY   = 122.2437

EPHEMERIS_TYPE = 0
CLASSIFICATION_TYPE = U
NORAD_CAT_ID   = 39358
ELEMENT_SET_NO = 999
REV_AT_EPOCH   = 66383
BSTAR          = .75319818E-4
MEAN_MOTION_DOT = .739E-5
MEAN_MOTION_DDOT = 0

